{"version": 0.6, "generator": "Overpass API 0.7.62.8 e802775f", "osm3s": {"timestamp_osm_base": "2026-01-18T00:28:44Z", "timestamp_areas_base": "2026-01-17T19:17:34Z", "copyright": "The data included in this document is from www.openstreetmap.org. The data is made available under ODbL."}, "elements": [{"type": "node", "id": 72993033, "tags": {"gfoss_id": "7644", "is_in": "Oristano, Sardegna, Italy", "name": "Nurachi", "name:it": "Nurachi", "name:sc": "Nurachi", "place": "village", "population": "1619", "postal_code": "09070", "source": "geodati.gfoss.it", "website": "https://www.comune.nurachi.or.it/index.asp", "wikidata": "Q386989", "wikipedia": "it:Nurachi"}}, {"type": "way", "id": 187948803, "tags": {"name": "Stagno di Piscaredda", "name:sc": "Istaniu de Piscaredda", "natural": "water", "wikidata": "Q22082310", "wikipedia": "it:Stagno di Piscaredda"}}, {"type": "relation", "id": 1730753, "tags": {"distance": "132.598", "from": "Alghero", "name": "Strada Statale 292 Nord Occidentale Sarda", "ref": "SS292", "roundtrip": "no", "route": "road", "to": "Oristano", "type": "route", "via": "Villanova Monteleone;Padria;Suni;Tresnuraghes;Cuglieri;Riola Sardo;Nurachi", "wikidata": "Q3974953", "wikipedia": "it:Strada statale 292 Nord Occidentale Sarda"}}, {"type": "relation", "id": 7508117, "tags": {"name": "Stagno di Cabras/Mar'e Pontis", "name:sc": "Mar'e Pontis", "natural": "water", "salt": "yes", "type": "multipolygon", "water": "lagoon", "wikidata": "Q3591675", "wikipedia": "it:Stagno di Cabras"}}, {"type": "relation", "id": 40169, "tags": {"admin_level": "8", "boundary": "administrative", "name": "Nurachi", "name:it": "Nurachi", "name:sc": "Nurachi", "postal_code": "09070", "ref:ISTAT": "095035", "ref:catasto": "F980", "type": "boundary", "website": "https://www.comune.nurachi.or.it/index.asp", "wikidata": "Q386989", "wikipedia": "it:Nurachi", "wikipedia:sc": "Nurachi"}}]}