{"version": 0.6, "generator": "Overpass API 0.7.62.8 e802775f", "osm3s": {"timestamp_osm_base": "2026-01-17T23:05:44Z", "timestamp_areas_base": "2026-01-17T19:46:15Z", "copyright": "The data included in this document is from www.openstreetmap.org. The data is made available under ODbL."}, "elements": [{"type": "node", "id": 4250051990, "tags": {"name": "Pinacoteca Andrea Alfano", "tourism": "museum", "wikidata": "Q21552326"}}, {"type": "node", "id": 4245096015, "tags": {"gfoss_id": "6518", "name": "Castrovillari", "place": "town", "population": "22240", "source": "geodati.gfoss.it", "wikidata": "Q53857", "wikipedia": "it:Castrovillari"}}, {"type": "node", "id": 388272308, "tags": {"ele": "2248", "name": "Monte Pollino", "natural": "peak", "wikidata": "Q3861856", "wikipedia": "it:Monte Pollino"}}, {"type": "node", "id": 26864585, "tags": {"ele": "2267", "name": "Serra Dolcedorme", "natural": "peak", "prominence": "1715", "source:prominence": "2267-552 (Valico di Vinchiaturo)", "wikidata": "Q3957956", "wikipedia": "it:Serra Dolcedorme"}}, {"type": "way", "id": 33911573, "tags": {"boundary": "national_park", "name": "Parco Nazionale del Pollino", "name:de": "Nationalpark Pollino", "name:en": "Pollino National Park", "name:es": "Parque nacional del Pollino", "name:fr": "Parc national du Pollino", "name:it": "Parco Nazionale del Pollino", "protect_class": "2", "start_date": "1993-11-15", "wikidata": "Q1072838", "wikimedia_commons": "Category:Parco nazionale del Pollino", "wikipedia": "it:Parco nazionale del Pollino"}}, {"type": "way", "id": 452718891, "tags": {"alt_name": "Fiume Sibari", "description": "l fiume Coscile \u00e8 lungo circa 50 km che presenta un ampio bacino idrografico dove confluiscono le acque di diverse sorgenti situate ai piedi del M. Pollino e di Serra Dolcedorme. Confluisce prima con il Fiume Esaro e poi con il Fiume Crati.", "name": "Fiume Coscile", "tunnel": "no", "waterway": "river", "width": "3", "wikidata": "Q869272", "wikipedia": "it:Coscile"}}, {"type": "way", "id": 425742284, "tags": {"addr:street": "Corso Giuseppe Garibaldi", "amenity": "place_of_worship", "building": "yes", "denomination": "catholic", "name": "Chiesa Santa Maria delle Grazie", "religion": "christian", "wikidata": "Q27987317"}}, {"type": "way", "id": 425813961, "tags": {"amenity": "place_of_worship", "building": "yes", "name": "Chiesa di San Vito", "religion": "christian", "wikidata": "Q28016554"}}, {"type": "way", "id": 280759858, "tags": {"building": "yes", "description": "Informazioni frammentarie. Fare riferimento al Comune.", "historic": "castle", "name": "Castello Aragonese", "phone": "+39 0981 25238", "wikidata": "Q28001058"}}, {"type": "way", "id": 425343252, "tags": {"amenity": "place_of_worship", "building": "yes", "denomination": "catholic", "name": "Chiesa Santissima Trinit\u00e0", "religion": "christian", "wikidata": "Q27987315"}}, {"type": "way", "id": 425354506, "tags": {"addr:city": "Castrovillari", "addr:postcode": "87012", "addr:street": "Via San Giuliano", "amenity": "place_of_worship", "basilica": "minor", "building": "yes", "name": "Basilica Minore di San Giuliano", "religion": "christian", "wikidata": "Q27987218"}}, {"type": "way", "id": 187148089, "tags": {"name": "Torrente Virt\u00f9", "waterway": "stream", "wikidata": "Q869272", "wikipedia": "it:Coscile"}}, {"type": "way", "id": 280759536, "tags": {"addr:street": "Via Santa Maria del Castello", "amenity": "place_of_worship", "building": "yes", "denomination": "catholic", "name": "Santuario Diocesano Madonna del Castello", "religion": "christian", "wikidata": "Q28016611", "wikipedia": "it:Santuario di Santa Maria del Castello"}}, {"type": "way", "id": 425285774, "tags": {"amenity": "place_of_worship", "building": "church", "denomination": "catholic", "name": "Chiesa dei Sacri Cuori", "religion": "christian", "wikidata": "Q118613031"}}, {"type": "way", "id": 425739632, "tags": {"amenity": "place_of_worship", "building": "church", "denomination": "catholic", "ele": "362", "name": "Chiesa di San Francesco di Paola", "religion": "christian", "wikidata": "Q55120233"}}, {"type": "way", "id": 104519975, "tags": {"denomination": "catholic", "landuse": "cemetery", "name": "Cimitero Comunale di Castrovillari", "religion": "christian", "wikidata": "Q110971488"}}, {"type": "way", "id": 1384382479, "tags": {"highway": "secondary", "lanes": "2", "name": "Via Fagosa", "old_ref": "SS105", "ref": "SP263", "surface": "asphalt", "wikidata": "Q3974699", "wikipedia": "it:Strada provinciale 263 ex SS 105 di Castrovillari"}}, {"type": "way", "id": 253097684, "tags": {"highway": "secondary", "lanes": "2", "maxspeed": "50", "name": "Via Fagosa", "old_ref": "SS105", "ref": "SP263", "surface": "asphalt", "wikidata": "Q3974699", "wikipedia": "it:Strada provinciale 263 ex SS 105 di Castrovillari"}}, {"type": "way", "id": 1384382478, "tags": {"highway": "secondary", "lanes": "2", "name": "Via Fagosa", "old_ref": "SS105", "ref": "SP263", "surface": "asphalt", "wikidata": "Q3974699", "wikipedia": "it:Strada provinciale 263 ex SS 105 di Castrovillari"}}, {"type": "way", "id": 1384382482, "tags": {"highway": "secondary", "lanes": "2", "name": "Via Fagosa", "old_ref": "SS105", "ref": "SP263", "surface": "asphalt", "wikidata": "Q3974699", "wikipedia": "it:Strada provinciale 263 ex SS 105 di Castrovillari"}}, {"type": "way", "id": 1384382484, "tags": {"highway": "secondary", "lanes": "2", "name": "Via Fagosa", "old_ref": "SS105", "ref": "SP263", "surface": "asphalt", "wikidata": "Q3974699", "wikipedia": "it:Strada provinciale 263 ex SS 105 di Castrovillari"}}, {"type": "way", "id": 95461875, "tags": {"highway": "motorway", "int_ref": "E 45", "lanes": "2", "lit": "no", "maxspeed": "80", "name": "Autostrada del Mediterraneo", "oneway": "yes", "ref": "A2", "surface": "asphalt", "toll": "no", "wikidata": "Q30112688", "wikipedia": "it:Autostrada A2 (Italia)"}}, {"type": "way", "id": 95461925, "tags": {"highway": "motorway", "int_ref": "E 45", "lanes": "2", "lit": "no", "maxspeed": "80", "name": "Autostrada del Mediterraneo", "note": "Original way #3188827 has been split because it had too many segments.", "oneway": "yes", "ref": "A2", "surface": "asphalt", "toll": "no", "wikidata": "Q30112688", "wikipedia": "it:Autostrada A2 (Italia)"}}, {"type": "way", "id": 95461824, "tags": {"bridge": "viaduct", "highway": "motorway", "int_ref": "E 45", "lanes": "2", "layer": "1", "lit": "no", "maxspeed": "80", "name": "Autostrada del Mediterraneo", "note": "Original way #3188827 has been split because it had too many segments.", "oneway": "yes", "ref": "A2", "surface": "asphalt", "toll": "no", "wikidata": "Q30112688", "wikipedia": "it:Autostrada A2 (Italia)"}}, {"type": "way", "id": 95461843, "tags": {"bridge": "viaduct", "highway": "motorway", "int_ref": "E 45", "lanes": "2", "layer": "1", "lit": "no", "maxspeed": "80", "name": "Autostrada del Mediterraneo", "oneway": "yes", "ref": "A2", "surface": "asphalt", "toll": "no", "wikidata": "Q30112688", "wikipedia": "it:Autostrada A2 (Italia)"}}, {"type": "way", "id": 319543987, "tags": {"highway": "motorway", "int_ref": "E 45", "lanes": "2", "lit": "no", "maxspeed": "80", "name": "Autostrada del Mediterraneo", "oneway": "yes", "placement": "right_of:1", "ref": "A2", "surface": "asphalt", "toll": "no", "wikidata": "Q30112688", "wikipedia": "it:Autostrada A2 (Italia)"}}, {"type": "way", "id": 319543988, "tags": {"highway": "motorway", "int_ref": "E 45", "lanes": "2", "lit": "no", "maxspeed": "80", "name": "Autostrada del Mediterraneo", "note": "Original way #3188827 has been split because it had too many segments.", "oneway": "yes", "placement": "right_of:1", "ref": "A2", "surface": "asphalt", "toll": "no", "wikidata": "Q30112688", "wikipedia": "it:Autostrada A2 (Italia)"}}, {"type": "way", "id": 319543989, "tags": {"highway": "motorway", "int_ref": "E 45", "lanes": "2", "lit": "no", "maxspeed": "80", "name": "Autostrada del Mediterraneo", "oneway": "yes", "placement": "right_of:1", "ref": "A2", "surface": "asphalt", "toll": "no", "wikidata": "Q30112688", "wikipedia": "it:Autostrada A2 (Italia)"}}, {"type": "way", "id": 319543990, "tags": {"highway": "motorway", "int_ref": "E 45", "lanes": "2", "lit": "no", "maxspeed": "80", "name": "Autostrada del Mediterraneo", "note": "Original way #3188827 has been split because it had too many segments.", "oneway": "yes", "placement": "right_of:1", "ref": "A2", "surface": "asphalt", "toll": "no", "wikidata": "Q30112688", "wikipedia": "it:Autostrada A2 (Italia)"}}, {"type": "way", "id": 319543991, "tags": {"highway": "motorway", "int_ref": "E 45", "lanes": "2", "lit": "no", "maxspeed": "80", "name": "Autostrada del Mediterraneo", "note": "Original way #3188827 has been split because it had too many segments.", "oneway": "yes", "ref": "A2", "surface": "asphalt", "toll": "no", "wikidata": "Q30112688", "wikipedia": "it:Autostrada A2 (Italia)"}}, {"type": "way", "id": 319543992, "tags": {"highway": "motorway", "int_ref": "E 45", "lanes": "2", "lit": "no", "maxspeed": "80", "name": "Autostrada del Mediterraneo", "oneway": "yes", "ref": "A2", "surface": "asphalt", "toll": "no", "wikidata": "Q30112688", "wikipedia": "it:Autostrada A2 (Italia)"}}, {"type": "way", "id": 85123525, "tags": {"highway": "motorway", "int_ref": "E 45", "lanes": "2", "lit": "no", "maxspeed": "80", "name": "Autostrada del Mediterraneo", "note": "Original way #3188827 has been split because it had too many segments.", "oneway": "yes", "ref": "A2", "surface": "asphalt", "toll": "no", "wikidata": "Q30112688", "wikipedia": "it:Autostrada A2 (Italia)"}}, {"type": "way", "id": 319543986, "tags": {"highway": "motorway", "int_ref": "E 45", "lanes": "2", "lit": "no", "maxspeed": "80", "name": "Autostrada del Mediterraneo", "oneway": "yes", "ref": "A2", "surface": "asphalt", "toll": "no", "wikidata": "Q30112688", "wikipedia": "it:Autostrada A2 (Italia)"}}, {"type": "way", "id": 72788457, "tags": {"highway": "secondary", "lanes": "2", "name": "Strada Provinciale 263 ex SS105 di Castrovillari", "old_ref": "SS105", "ref": "SP263", "surface": "asphalt", "wikidata": "Q3974699", "wikipedia": "it:Strada provinciale 263 ex SS 105 di Castrovillari"}}, {"type": "way", "id": 85123496, "tags": {"bridge": "yes", "highway": "motorway", "int_ref": "E 45", "lanes": "2", "layer": "1", "lit": "no", "name": "Autostrada del Mediterraneo", "note": "Original way #3188827 has been split because it had too many segments.", "oneway": "yes", "ref": "A2", "surface": "asphalt", "toll": "no", "wikidata": "Q30112688", "wikipedia": "it:Autostrada A2 (Italia)"}}, {"type": "way", "id": 85123539, "tags": {"highway": "motorway", "int_ref": "E 45", "lanes": "2", "lit": "no", "maxspeed": "80", "name": "Autostrada del Mediterraneo", "oneway": "yes", "ref": "A2", "surface": "asphalt", "toll": "no", "wikidata": "Q30112688", "wikipedia": "it:Autostrada A2 (Italia)"}}, {"type": "way", "id": 85123555, "tags": {"bridge": "yes", "highway": "motorway", "int_ref": "E 45", "lanes": "2", "layer": "1", "lit": "no", "name": "Autostrada del Mediterraneo", "oneway": "yes", "ref": "A2", "surface": "asphalt", "toll": "no", "wikidata": "Q30112688", "wikipedia": "it:Autostrada A2 (Italia)"}}, {"type": "way", "id": 161998527, "tags": {"highway": "motorway", "int_ref": "E 45", "lanes": "2", "lit": "no", "maxspeed": "80", "name": "Autostrada del Mediterraneo", "oneway": "yes", "ref": "A2", "surface": "asphalt", "toll": "no", "wikidata": "Q30112688", "wikipedia": "it:Autostrada A2 (Italia)"}}, {"type": "way", "id": 253097683, "tags": {"highway": "secondary", "lanes": "2", "name": "Strada Provinciale 263 ex SS105 di Castrovillari", "old_ref": "SS105", "ref": "SP263", "surface": "asphalt", "wikidata": "Q3974699", "wikipedia": "it:Strada provinciale 263 ex SS 105 di Castrovillari"}}, {"type": "way", "id": 860788859, "tags": {"highway": "motorway", "int_ref": "E 45", "lanes": "2", "lit": "no", "maxspeed": "80", "name": "Autostrada del Mediterraneo", "oneway": "yes", "ref": "A2", "surface": "asphalt", "toll": "no", "wikidata": "Q30112688", "wikipedia": "it:Autostrada A2 (Italia)"}}, {"type": "way", "id": 860788932, "tags": {"highway": "secondary", "lanes": "2", "maxspeed": "50", "name": "Strada Provinciale 263 ex SS105 di Castrovillari", "old_ref": "SS105", "ref": "SP263", "surface": "asphalt", "wikidata": "Q3974699", "wikipedia": "it:Strada provinciale 263 ex SS 105 di Castrovillari"}}, {"type": "way", "id": 860788935, "tags": {"highway": "secondary", "lanes": "2", "maxspeed": "50", "name": "Strada Provinciale 263 ex SS105 di Castrovillari", "old_ref": "SS105", "ref": "SP263", "surface": "asphalt", "wikidata": "Q3974699", "wikipedia": "it:Strada provinciale 263 ex SS 105 di Castrovillari"}}, {"type": "way", "id": 1316354371, "tags": {"highway": "secondary", "lanes": "2", "name": "Strada Provinciale 263 ex SS105 di Castrovillari", "old_ref": "SS105", "ref": "SP263", "surface": "asphalt", "wikidata": "Q3974699", "wikipedia": "it:Strada provinciale 263 ex SS 105 di Castrovillari"}}, {"type": "relation", "id": 226564, "tags": {"name": "Autostrada del Mediterraneo", "network": "IT:A-road", "ref": "A2", "route": "road", "type": "route", "wikidata": "Q30112688", "wikipedia": "it:Autostrada A2 (Italia)"}}, {"type": "relation", "id": 14435114, "tags": {"distance": "104.746", "disused:railway": "narrow_gauge", "from": "Lagonegro", "gauge": "950", "name": "Ferrovia dismessa Lagonegro-Spezzano Albanese Terme", "operator": "FCL", "public_transport:version": "1", "roundtrip": "no", "route": "train", "source": "https://www.ferrovieabbandonate.it/linea_dismessa.php?id=109", "to": "Spezzano Albanese Terme", "type": "route", "via": "Lagonegro, Lauria, Galdo, Prestieri, Castelluccio Superiore, Castelluccio Inferiore, Laino Borgo, Papasidero, Mormanno, Campotenese, Pavone, Carbonaro, Morano Calabro, Castrovillari, Frascineto, Cassano allo Jonio, Spezzano Albanese", "wikidata": "Q3743454", "wikipedia": "it:Ferrovia Lagonegro-Castrovillari-Spezzano Albanese"}}, {"type": "relation", "id": 40049, "tags": {"admin_level": "8", "boundary": "administrative", "name": "Castrovillari", "ref:ISTAT": "078033", "ref:catasto": "C349", "type": "boundary", "wikidata": "Q53857", "wikimedia_commons": "Category:Castrovillari", "wikipedia": "it:Castrovillari"}}, {"type": "relation", "id": 6402214, "tags": {"description:fr": "E 844 Spezzano Albanese - Sibari", "name": "European route E844", "name:en": "European route E844", "name:fr": "Route europ\u00e9enne E 844", "name:it": "Strada europea E 844", "name:nl": "Europese route E844", "name:sk": "Eur\u00f3pska cesta E844", "network": "e-road", "ref": "E 844", "route": "road", "type": "route", "wikidata": "Q2707357"}}, {"type": "relation", "id": 12692277, "tags": {"from": "A2", "name": "Strada statale 534 di Camarrata e degli Stombi", "ref": "SS534", "route": "road", "to": "Sibari", "type": "route", "wikidata": "Q3975264", "wikipedia": "it:Strada statale 534 di Cammarata e degli Stombi"}}]}