{"version": 0.6, "generator": "Overpass API 0.7.62.8 e802775f", "osm3s": {"timestamp_osm_base": "2026-01-18T00:12:03Z", "timestamp_areas_base": "2026-01-17T19:46:15Z", "copyright": "The data included in this document is from www.openstreetmap.org. The data is made available under ODbL."}, "elements": [{"type": "node", "id": 447838548, "tags": {"name": "Teill\u00e9", "name:br": "Tilhieg", "name:fr": "Teill\u00e9", "place": "village", "population": "1812", "population:date": "2021", "ref:FR:SIREN": "214402026", "source": "cadastre-dgi-fr source : Direction G\u00e9n\u00e9rale des Imp\u00f4ts - Cadastre. Mise \u00e0 jour : 2009", "source:population": "INSEE 2024", "website": "http://www.teille.fr/", "wikidata": "Q1065387", "wikipedia": "fr:Teill\u00e9 (Loire-Atlantique)"}}, {"type": "node", "id": 3235862142, "tags": {"addr:city": "Teill\u00e9", "addr:housenumber": "67", "addr:postcode": "44440", "addr:street": "Rue de la Clavellerie", "amenity": "social_facility", "fax": "+33 2 40 97 22 78", "name": "R\u00e9sidence de la Sainte-Famille", "phone": "+33 2 40 97 23 17", "ref:FR:FINESS": "440002731", "social_facility": "group_home", "social_facility_for": "senior", "wheelchair": "yes", "wikidata": "Q112979221"}}, {"type": "node", "id": 11341060049, "tags": {"historic": "memorial", "memorial": "war_memorial", "ref:FR:MemorialGenWeb": "80215", "wikidata": "Q136079871"}}, {"type": "way", "id": 266838536, "tags": {"amenity": "place_of_worship", "building": "church", "denomination": "catholic", "name": "\u00c9glise Saint-Pierre", "name:br": "Iliz Sant-P\u00ear", "ref:FR:CEF": "44202_01", "religion": "christian", "source": "cadastre-dgi-fr source : Direction G\u00e9n\u00e9rale des Finances Publiques - Cadastre. Mise \u00e0 jour : 2014", "source:name:br": "proper translation", "wikidata": "Q41766845"}}, {"type": "way", "id": 266924619, "tags": {"landuse": "cemetery", "wikidata": "Q110479225"}}, {"type": "way", "id": 266835903, "tags": {"building": "yes", "castle_type": "manor", "heritage": "3", "heritage:operator": "mhs", "historic": "castle", "mhs:inscription_date": "1982-05-17", "name": "Ch\u00e2teau de la Guibourg\u00e8re", "ref:mhs": "PA00108835", "source": "cadastre-dgi-fr source : Direction G\u00e9n\u00e9rale des Finances Publiques - Cadastre. Mise \u00e0 jour : 2014", "source:heritage": "Minist\u00e8re de la Culture - 06/2019", "wikidata": "Q2971260", "wikipedia": "fr:Ch\u00e2teau de la Guibourg\u00e8re"}}, {"type": "way", "id": 266836175, "tags": {"building": "chapel", "source": "cadastre-dgi-fr source : Direction G\u00e9n\u00e9rale des Finances Publiques - Cadastre. Mise \u00e0 jour : 2014", "wikidata": "Q109796353"}}, {"type": "relation", "id": 6476151, "tags": {"name": "Central Europe Pipeline System", "name:en": "Central Europe Pipeline System", "name:fr": "R\u00e9seau d'ol\u00e9oducs en Centre-Europe", "route": "pipeline", "short_name": "CEPS", "type": "route", "wikidata": "Q872940", "wikipedia": "de:Central Europe Pipeline System"}}, {"type": "relation", "id": 11763952, "tags": {"abandoned": "yes", "from": "Segr\u00e9", "historic": "railway", "name": "Ligne de Segr\u00e9 \u00e0 Nantes-\u00c9tat", "name:br": "Linenn eus Segr\u00e9 da Naoned-Stad", "ref": "457000", "route": "tracks", "to": "Nantes", "type": "route", "wikidata": "Q3239926"}}, {"type": "relation", "id": 179417, "tags": {"admin_level": "8", "boundary": "administrative", "name": "Teill\u00e9", "name:br": "Tilhieg", "population": "1812", "population:date": "2021", "postal_code": "44440", "ref:FR:SIREN": "214402026", "ref:INSEE": "44202", "source:population": "INSEE 2024", "source:postal_code": "La Poste - 12/2014", "type": "boundary", "wikidata": "Q1065387", "wikipedia": "fr:Teill\u00e9 (Loire-Atlantique)"}}]}